STARLINK-2022           
1 47643U 21012Z   24246.61824806  .00030220  00000+0  20376-2 0  9999
2 47643  53.0552  14.4517 0001335  57.5738 302.5380 15.06426063196904
